OBJECT_NAME,OBJECT_ID,EPOCH,MEAN_MOTION,ECCENTRICITY,INCLINATION,RA_OF_ASC_NODE,ARG_OF_PERICENTER,MEAN_ANOMALY,EPHEMERIS_TYPE,CLASSIFICATION_TYPE,NORAD_CAT_ID,ELEMENT_SET_NO,REV_AT_EPOCH,BSTAR,MEAN_MOTION_DOT,MEAN_MOTION_DDOT
BEIDOU-2 IGSO-4,2011-038A,2026-06-06T14:49:08.416128,1.00287300,.01590706,54.5986,165.7673,231.3681,173.1210,0,U,37763,999,5454,0,.66E-6,0
ASTRA 1N,2011-041A,2026-06-09T11:43:06.722400,1.00272432,.00062352,0.0818,36.9615,56.5145,359.3802,0,U,37775,999,4445,0,.137E-5,0
BSAT-3C (JCSAT-110R),2011-041B,2026-06-09T00:10:23.273184,1.00271328,.00005174,0.0180,326.2334,202.1972,201.5180,0,U,37776,999,5038,0,-.334E-5,0
PAKSAT-1R,2011-042A,2026-06-09T04:57:44.737056,1.00275087,.000322,0.6671,84.6801,346.2845,299.0695,0,U,37779,999,5439,0,.17E-5,0
SES-2,2011-049A,2026-06-09T09:30:05.728032,1.00271246,.00028271,0.0457,118.4173,318.0503,236.8341,0,U,37809,999,5388,0,-.179E-5,0
ARABSAT-5C,2011-049B,2026-06-09T11:43:21.698112,1.00273522,.00034631,0.0479,356.7506,103.5086,353.4556,0,U,37810,999,5396,0,.141E-5,0
EUTELSAT 7 WEST A,2011-051A,2026-06-09T09:52:48.550656,1.00271210,.00041824,0.0604,355.8024,95.4469,307.4241,0,U,37816,999,5379,0,-.43E-6,0
QUETZSAT 1,2011-054A,2026-06-09T07:50:18.297888,1.00271497,.00027472,0.0491,71.9889,8.5688,217.7347,0,U,37826,999,4979,0,-.225E-5,0
INTELSAT 18 (IS-18),2011-056A,2026-06-09T02:12:49.370112,1.00272262,.00020678,0.0012,354.7032,100.6597,15.3233,0,U,37834,999,5373,0,.7E-6,0
EUTELSAT 16A,2011-057A,2026-06-09T08:16:45.762240,1.00271218,.00058833,0.0421,357.3376,83.7322,316.8199,0,U,37836,999,725,0,.121E-5,0
VIASAT-1,2011-059A,2026-06-09T11:12:42.313824,1.00269782,.00022777,0.0191,322.5579,120.3422,228.0150,0,U,37843,999,4724,0,-.6E-7,0
ASIASAT 7,2011-069A,2026-06-09T15:33:03.516768,1.00268301,.0001246,0.0191,18.8439,53.1915,164.7571,0,U,37933,999,4478,0,-.316E-5,0
BEIDOU-2 IGSO-5,2011-073A,2026-06-08T19:07:21.601920,1.00274888,.0113644,47.6948,271.6514,221.6643,142.4598,0,U,37948,999,5305,0,-.162E-5,0
LUCH-5A,2011-074B,2026-06-08T15:01:07.500864,1.00269774,.00023162,8.7313,73.9336,16.8767,198.4781,0,U,37951,999,5296,0,-.35E-6,0
NIGCOMSAT 1R,2011-077A,2026-06-09T11:49:42.441312,1.00272144,.00024892,0.0169,152.8217,199.1523,125.8074,0,U,38014,999,5288,0,.162E-5,0
WGS F4 (USA 233),2012-003A,2026-06-09T12:02:48.683904,1.00267698,.00005724,0.0189,342.3733,292.3039,252.3159,0,U,38070,999,4407,0,0,0
SES-4,2012-007A,2026-06-09T07:31:38.877888,1.00270088,.0002547,0.0257,30.6898,56.8035,261.1049,0,U,38087,999,5214,0,-.151E-5,0
BEIDOU-2 G5,2012-008A,2026-06-09T15:19:43.858848,1.00270348,.00093188,3.5539,69.7436,275.4975,201.3768,0,U,38091,999,5229,0,.74E-6,0
MUOS-1,2012-009A,2026-06-09T11:04:54.470784,1.00270603,.00588513,5.4611,47.1633,1.2289,275.6982,0,U,38093,999,5236,0,-.113E-5,0
INTELSAT 22 (IS-22),2012-011A,2026-06-09T03:24:47.605824,1.00273409,.00016059,0.0264,67.7528,2.5980,310.4768,0,U,38098,999,710,0,-.42E-6,0
APSTAR-7,2012-013A,2026-06-08T12:02:05.404416,1.00271176,.00029941,0.0383,91.7182,355.6426,66.5450,0,U,38107,999,5172,0,-.85E-6,0
YAHSAT 1B,2012-016A,2026-06-09T06:42:58.995072,1.00270056,.00026728,0.0897,90.7627,10.5244,304.7183,0,U,38245,999,4552,0,.143E-5,0
AEHF-2 (USA 235),2012-019A,2026-06-09T09:50:18.790080,1.00270340,.00023679,6.6337,57.5469,10.8905,320.4005,0,U,38254,999,690,0,-.121E-5,0
JCSAT-13,2012-023A,2026-06-09T12:13:00.583392,1.00271704,.00028999,0.0187,50.2922,49.6332,105.2229,0,U,38331,999,5146,0,-.339E-5,0
VINASAT-2,2012-023B,2026-06-09T12:15:15.368256,1.00271148,.00023166,0.0212,26.0392,65.1538,122.3627,0,U,38332,999,4658,0,-.312E-5,0
NIMIQ 6,2012-026A,2026-06-09T11:11:32.492256,1.00271249,.00027008,0.0101,352.2519,84.3757,258.0028,0,U,38342,999,5033,0,-.157E-5,0
ZHONGXING-2A,2012-028A,2026-06-09T08:40:17.787936,1.00270160,.00037426,1.4330,83.9869,35.4867,6.5666,0,U,38352,999,5122,0,-.275E-5,0
INTELSAT 19 (IS-19),2012-030A,2026-06-09T12:40:38.646048,1.00271943,.00030286,0.0192,333.0929,113.0646,167.9116,0,U,38356,999,5037,0,-.39E-6,0
ECHOSTAR 17,2012-035A,2026-06-09T11:08:40.697952,1.00268912,.00016649,0.0208,345.7230,95.5956,236.5862,0,U,38551,999,5098,0,0,0
METEOSAT-10 (MSG-3),2012-035B,2026-06-09T08:12:23.679936,1.00275834,.00015594,4.6521,61.0520,334.1792,345.8157,0,U,38552,999,5077,0,.11E-6,0
SES-5,2012-036A,2026-06-09T08:13:38.561088,1.00271308,.0001915,0.0521,308.5687,132.4669,305.0823,0,U,38652,999,4437,0,.51E-6,0
INTELSAT 20 (IS-20),2012-043A,2026-06-09T10:14:29.803776,1.00272739,.0001687,0.0004,36.0722,138.8297,305.0277,0,U,38740,999,5067,0,-.8E-7,0
